NORAD_CAT_ID,OBJECT_NAME,OBJECT_TYPE,EPOCH,MEAN_MOTION,ECCENTRICITY,INCLINATION,RA_OF_ASC_NODE,ARG_OF_PERICENTER,MEAN_ANOMALY,BSTAR,MEAN_MOTION_DOT,MEAN_MOTION_DDOT,TLE_LINE0,TLE_LINE1,TLE_LINE2,SEMIMAJOR_AXIS,PERIOD,APOGEE,PERIGEE,DECAYED
51984.0,STARLINK-3664,PAYLOAD,2024-02-08 04:55:17,15.08841527,0.0001302,53.2163,213.0677,87.2799,272.8342,7.0463e-05,8.34e-06,0.0,0 STARLINK-3664,1 51984U 22025AE  24039.20506183  .00000834  00000-0  70463-4 0  9990,2 51984  53.2163 213.0677 0001302  87.2799 272.8342 15.08841527106256,6917.876,95.437,540.641,538.84,0.0
51984.0,STARLINK-3664,PAYLOAD,2024-02-08 20:49:08,15.08848636,0.0001326,53.2165,210.0923,91.6121,268.5023,0.00010082,1.317e-05,0.0,0 STARLINK-3664,1 51984U 22025AE  24039.86745549  .00001317  00000-0  10082-3 0  9990,2 51984  53.2165 210.0923 0001326  91.6121 268.5023 15.08848636106350,6917.854,95.437,540.636,538.802,0.0
51984.0,STARLINK-3664,PAYLOAD,2024-02-09 14:18:23,15.08841801,0.0001349,53.2165,206.8205,93.1443,266.9703,6.6696e-05,7.74e-06,0.0,0 STARLINK-3664,1 51984U 22025AE  24040.59609985  .00000774  00000-0  66696-4 0  9994,2 51984  53.2165 206.8205 0001349  93.1443 266.9703 15.08841801106461,6917.875,95.437,540.673,538.807,0.0
51984.0,STARLINK-3664,PAYLOAD,2024-02-09 17:29:09,15.08845104,0.0001366,53.2166,206.226,92.3224,267.7924,9.1914e-05,1.175e-05,0.0,0 STARLINK-3664,1 51984U 22025AE  24040.72857688  .00001175  00000-0  91914-4 0  9991,2 51984  53.2166 206.2260 0001366  92.3224 267.7924 15.08845104107582,6917.865,95.437,540.675,538.785,0.0
51984.0,STARLINK-3664,PAYLOAD,2024-02-10 14:09:10,15.08836856,0.000135,53.2165,202.3602,86.051,274.0636,-9.6165e-06,-4.41e-06,0.0,0 STARLINK-3664,1 51984U 22025AE  24041.58970776 -.00000441  00000-0 -96165-5 0  9991,2 51984  53.2165 202.3602 0001350  86.0510 274.0636 15.08836856106617,6917.89,95.438,540.689,538.821,0.0
51984.0,STARLINK-3664,PAYLOAD,2024-02-10 17:19:57,15.08834914,0.0001379,53.2175,201.7617,94.385,265.73,-2.211e-05,-6.4e-06,0.0,0 STARLINK-3664,1 51984U 22025AE  24041.72218868 -.00000640  00000-0 -22110-4 0  9993,2 51984  53.2175 201.7617 0001379  94.3850 265.7300 15.08834914107739,6917.896,95.438,540.715,538.807,0.0
51984.0,STARLINK-3664,PAYLOAD,2024-02-10 20:30:43,15.08836198,0.000142,53.2168,201.1712,95.7586,264.3568,-8.2277e-06,-4.19e-06,0.0,0 STARLINK-3664,1 51984U 22025AE  24041.85466817 -.00000419  00000-0 -82277-5 0  9991,2 51984  53.2168 201.1712 0001420  95.7586 264.3568 15.08836198106656,6917.892,95.438,540.739,538.775,0.0
51984.0,STARLINK-3664,PAYLOAD,2024-02-11 13:59:57,15.08841817,0.0001241,53.2165,197.9018,86.7376,273.3759,5.8653e-05,6.46e-06,0.0,0 STARLINK-3664,1 51984U 22025AE  24042.58330431  .00000646  00000-0  58653-4 0  9994,2 51984  53.2165 197.9018 0001241  86.7376 273.3759 15.08841817106760,6917.875,95.437,540.598,538.881,0.0
51984.0,STARLINK-3664,PAYLOAD,2024-02-11 17:10:43,15.08850069,0.0001367,53.2172,197.3066,100.8782,259.2364,0.00011377,1.524e-05,0.0,0 STARLINK-3664,1 51984U 22025AE  24042.71577754  .00001524  00000-0  11377-3 0  9997,2 51984  53.2172 197.3066 0001367 100.8782 259.2364 15.08850069107881,6917.85,95.437,540.66,538.769,0.0
51984.0,STARLINK-3664,PAYLOAD,2024-02-12 10:39:58,15.08838351,0.0001229,53.2171,194.0359,88.929,271.1843,0.00012054,1.631e-05,0.0,0 STARLINK-3664,1 51984U 22025AE  24043.44442766  .00001631  00000-0  12054-3 0  9994,2 51984  53.2171 194.0359 0001229  88.9290 271.1843 15.08838351107993,6917.885,95.438,540.601,538.9,0.0
51984.0,STARLINK-3664,PAYLOAD,2024-02-12 13:50:44,15.08841005,0.0001305,53.2174,193.441,98.4775,261.6365,0.00014049,1.949e-05,0.0,0 STARLINK-3664,1 51984U 22025AE  24043.57690586  .00001949  00000-0  14049-3 0  9991,2 51984  53.2174 193.4410 0001305  98.4775 261.6365 15.08841005106910,6917.877,95.437,540.645,538.84,0.0
51984.0,STARLINK-3664,PAYLOAD,2024-02-12 17:01:30,15.08844868,0.0001406,53.2174,192.8454,97.8766,262.2386,0.00017304,2.467e-05,0.0,0 STARLINK-3664,1 51984U 22025AE  24043.70938387  .00002467  00000-0  17304-3 0  9993,2 51984  53.2174 192.8454 0001406  97.8766 262.2386 15.08844868106938,6917.866,95.437,540.703,538.758,0.0
51984.0,STARLINK-3664,PAYLOAD,2024-02-13 13:41:32,15.0883625,0.0001601,53.2185,188.9896,96.5887,263.5288,-8.2746e-05,-1.605e-05,0.0,0 STARLINK-3664,1 51984U 22025AE  24044.57051012 -.00001605  00000-0 -82746-4 0  9998,2 51984  53.2185 188.9896 0001601  96.5887 263.5288 15.08836250107069,6917.892,95.438,540.864,538.649,0.0
51984.0,STARLINK-3664,PAYLOAD,2024-02-13 18:27:41,15.08839427,0.0001565,53.2181,188.0926,92.7766,267.3405,-1.4001e-05,-5.11e-06,0.0,0 STARLINK-3664,1 51984U 22025AE  24044.76922854 -.00000511  00000-0 -14001-4 0  9994,2 51984  53.2181 188.0926 0001565  92.7766 267.3405 15.08839427108190,6917.882,95.438,540.83,538.664,0.0
51984.0,STARLINK-3664,PAYLOAD,2024-02-13 20:03:04,15.08839896,0.0001646,53.218,187.7906,91.2157,268.9023,8.5593e-06,-1.52e-06,0.0,0 STARLINK-3664,1 51984U 22025AE  24044.83546849 -.00000152  00000-0  85593-5 0  9993,2 51984  53.2180 187.7906 0001646  91.2157 268.9023 15.08839896107104,6917.881,95.438,540.884,538.607,0.0
51984.0,STARLINK-3664,PAYLOAD,2024-02-14 15:07:42,15.08834054,0.0001582,53.2165,184.2208,103.6711,256.4457,-1.6067e-05,-5.44e-06,0.0,0 STARLINK-3664,1 51984U 22025AE  24045.63035479 -.00000544  00000-0 -16067-4 0  9999,2 51984  53.2165 184.2208 0001582 103.6711 256.4457 15.08834054107224,6917.899,95.438,540.858,538.669,0.0
51984.0,STARLINK-3664,PAYLOAD,2024-02-14 18:18:28,15.08838666,0.0001405,53.2166,183.626,90.3293,269.786,7.6023e-05,9.22e-06,0.0,0 STARLINK-3664,1 51984U 22025AE  24045.76283359  .00000922  00000-0  76023-4 0  9991,2 51984  53.2166 183.6260 0001405  90.3293 269.7860 15.08838666107247,6917.884,95.438,540.721,538.778,0.0
51984.0,STARLINK-3664,PAYLOAD,2024-02-15 00:40:01,15.08844639,0.0001561,53.217,182.436,110.4956,249.6204,-9.5508e-05,-1.808e-05,0.0,0 STARLINK-3664,1 51984U 22025AE  24046.02779010 -.00001808  00000-0 -95508-4 0  9990,2 51984  53.2170 182.4360 0001561 110.4956 249.6204 15.08844639108385,6917.866,95.437,540.811,538.651,0.0
51984.0,STARLINK-3664,PAYLOAD,2024-02-15 08:36:57,15.08833261,0.0001278,53.2149,180.9543,90.6465,269.4673,0.00018024,2.581e-05,0.0,0 STARLINK-3664,1 51984U 22025AE  24046.35899936  .00002581  00000-0  18024-3 0  9990,2 51984  53.2149 180.9543 0001278  90.6465 269.4673 15.08833261108431,6917.901,95.438,540.65,538.882,0.0
51984.0,STARLINK-3664,PAYLOAD,2024-02-15 13:23:07,15.08833887,0.0001355,53.2151,180.062,89.8599,270.2548,0.00016557,2.348e-05,0.0,0 STARLINK-3664,1 51984U 22025AE  24046.55772068  .00002348  00000-0  16557-3 0  9998,2 51984  53.2151 180.0620 0001355  89.8599 270.2548 15.08833887107361,6917.899,95.438,540.701,538.827,0.0
51984.0,STARLINK-3664,PAYLOAD,2024-02-15 14:58:29,15.08838207,0.0001243,53.2149,179.7647,96.5025,263.6109,8.9153e-05,1.131e-05,0.0,0 STARLINK-3664,1 51984U 22025AE  24046.62395775  .00001131  00000-0  89153-4 0  9994,2 51984  53.2149 179.7647 0001243  96.5025 263.6109 15.08838207107378,6917.886,95.438,540.611,538.891,0.0
51984.0,STARLINK-3664,PAYLOAD,2024-02-16 02:06:11,15.08843786,0.0001324,53.2146,177.6817,95.614,264.5003,0.00015753,2.22e-05,0.0,0 STARLINK-3664,1 51984U 22025AE  24047.08763531  .00002220  00000-0  15753-3 0  9998,2 51984  53.2146 177.6817 0001324  95.6140 264.5003 15.08843786108540,6917.869,95.437,540.65,538.818,0.0
51984.0,STARLINK-3664,PAYLOAD,2024-02-16 14:49:16,15.08845585,0.0001228,53.2148,175.3027,85.6312,274.482,0.00015709,2.213e-05,0.0,0 STARLINK-3664,1 51984U 22025AE  24047.61755439  .00002213  00000-0  15709-3 0  9998,2 51984  53.2148 175.3027 0001228  85.6312 274.4820 15.08845585107526,6917.863,95.437,540.578,538.879,0.0
51984.0,STARLINK-3664,PAYLOAD,2024-02-16 18:00:02,15.0885727,0.0001459,53.2159,174.7058,94.0554,266.0605,0.00024821,3.666e-05,0.0,0 STARLINK-3664,1 51984U 22025AE  24047.75002745  .00003666  00000-0  24821-3 0  9996,2 51984  53.2159 174.7058 0001459  94.0554 266.0605 15.08857270108649,6917.828,95.436,540.702,538.683,0.0
51984.0,STARLINK-3664,PAYLOAD,2024-02-17 11:29:17,15.08841528,0.0001382,53.2146,171.4368,87.5623,272.5527,9.9352e-05,1.294e-05,0.0,0 STARLINK-3664,1 51984U 22025AE  24048.47867550  .00001294  00000-0  99352-4 0  9996,2 51984  53.2146 171.4368 0001382  87.5623 272.5527 15.08841528108758,6917.876,95.437,540.697,538.785,0.0
51984.0,STARLINK-3664,PAYLOAD,2024-02-17 14:40:03,15.08845927,0.0001393,53.2148,170.8415,93.8954,266.2197,0.00016137,2.282e-05,0.0,0 STARLINK-3664,1 51984U 22025AE  24048.61115318  .00002282  00000-0  16137-3 0  9997,2 51984  53.2148 170.8415 0001393  93.8954 266.2197 15.08845927107675,6917.862,95.437,540.691,538.764,0.0
51984.0,STARLINK-3664,PAYLOAD,2024-02-17 17:50:49,15.08850553,0.0001427,53.2149,170.2461,90.4818,269.6337,0.00016657,2.365e-05,0.0,0 STARLINK-3664,1 51984U 22025AE  24048.74362989  .00002365  00000-0  16657-3 0  9998,2 51984  53.2149 170.2461 0001427  90.4818 269.6337 15.08850553108799,6917.848,95.437,540.7,538.726,0.0
51984.0,STARLINK-3664,PAYLOAD,2024-02-18 11:20:04,15.08843476,0.0001635,53.2158,166.9723,96.8202,263.2977,4.9666e-05,5.03e-06,0.0,0 STARLINK-3664,1 51984U 22025AE  24049.47227152  .00000503  00000-0  49666-4 0  9990,2 51984  53.2158 166.9723 0001635  96.8202 263.2977 15.08843476108909,6917.87,95.437,540.866,538.604,0.0
51984.0,STARLINK-3664,PAYLOAD,2024-02-18 12:55:27,15.0884473,0.0001569,53.2167,166.675,98.7686,261.3483,5.9284e-05,6.56e-06,0.0,0 STARLINK-3664,1 51984U 22025AE  24049.53851092  .00000656  00000-0  59284-4 0  9999,2 51984  53.2167 166.6750 0001569  98.7686 261.3483 15.08844730107813,6917.866,95.437,540.816,538.646,0.0
51984.0,STARLINK-3664,PAYLOAD,2024-02-18 17:41:36,15.08844956,0.0001681,53.2167,165.7813,100.3298,259.7884,0.00023368,3.433e-05,0.0,0 STARLINK-3664,1 51984U 22025AE  24049.73723039  .00003433  00000-0  23368-3 0  9999,2 51984  53.2167 165.7813 0001681 100.3298 259.7884 15.08844956107846,6917.865,95.437,540.893,538.567,0.0
